SIRION PATHFINDER-2     
1 43759U 18099B   26168.64423277  .00003356  00000+0  18548-3 0  9998
2 43759  97.4248 217.6909 0007179 303.3569  56.6975 15.14551067412696
CORVUS BC4              
1 43767U 18099K   26168.65142097  .00003509  00000+0  20509-3 0  9996
2 43767  97.4063 211.6182 0008204  11.8470 348.2952 15.12499738412474
M2 PATHFINDER           
1 45727U 20037E   26168.57887413  .00001317  00000+0  98040-4 0  9999
2 45727  97.8146 359.8151 0012526 144.9775 215.2277 15.04677114325559
NETSAT-4                
1 46504U 20068U   26168.96738356  .00014505  00000+0  32135-3 0  9996
2 46504  97.8602 177.2709 0003746 334.9225  25.1839 15.43886308315894
NETSAT-3                
1 46505U 20068V   26168.52021461  .00014868  00000+0  34277-3 0  9992
2 46505  97.8649 175.0036 0004166   0.5703 359.5547 15.42688001315731
NETSAT-1                
1 46506U 20068W   26168.52664457  .00009573  00000+0  28756-3 0  9993
2 46506  97.8743 169.3378 0004996  31.5449 328.6092 15.34649788315354
NETSAT-2                
1 46507U 20068X   26168.48856875  .00018610  00000+0  38293-3 0  9995
2 46507  97.8608 176.6489 0003412  26.1763 333.9657 15.46009035315781
GREENCUBE (IO-117)      
1 53109U 22080E   26164.29338770 -.00000003  00000+0  00000+0 0  9990
2 53109  70.1444 299.5995 0008910 290.4576  69.5127  6.42583230 91811
SITRO-AIS 5 (KATYS)     
1 57176U 23091L   26168.92050560  .00010470  00000+0  36815-3 0  9998
2 57176  97.5057 232.8268 0012767 101.1566 259.1111 15.29471964164453
SITRO-AIS 6 (CHIRKIN)   
1 57192U 23091AC  26168.90114457  .00008364  00000+0  32787-3 0  9993
2 57192  97.5064 231.9225 0013100 104.2536 256.0158 15.25946701164397
SITRO-AIS 8 (ANOKHIN)   
1 57193U 23091AD  26168.93624981  .00012685  00000+0  41007-3 0  9991
2 57193  97.5052 234.4343 0011775  97.7783 262.4796 15.32154226164569
SITRO-AIS 7 (FARTUSHNIY)
1 57194U 23091AE  26168.90443932  .00008278  00000+0  32759-3 0  9991
2 57194  97.5061 231.7507 0012961 105.1788 255.0884 15.25634813164382
SITRO-AIS 10 (BURDAEV)  
1 57199U 23091AK  26168.89960991  .00017044  00000+0  44802-3 0  9996
2 57199  97.5079 239.4588 0007453  78.2622 281.9458 15.38636050164875
SITRO-AIS 9 (SHCHUKIN)  
1 57201U 23091AM  26168.92623748  .00016263  00000+0  43449-3 0  9998
2 57201  97.5077 239.2155 0007719  78.1534 282.0576 15.38143405164860
SITRO-AIS 12 (SMIRENNIY)
1 57204U 23091AQ  26168.91671799  .00016146  00000+0  42735-3 0  9996
2 57204  97.5090 239.6732 0007242  73.3262 286.8777 15.38436816164887
SITRO-AIS 11 (SHEFFER)  
1 57208U 23091AU  26168.92993177  .00016908  00000+0  44127-3 0  9991
2 57208  97.5088 239.9341 0007132  73.2744 286.9283 15.38861691164908
SITRO-AIS 25            
1 59066U 24039R   26168.97915900  .00002254  00000+0  17772-3 0  9996
2 59066  95.3905 235.6368 0143360 325.9545  33.2544 14.93516495124849
SITRO-AIS 26            
1 59067U 24039S   26168.91363169  .00002127  00000+0  16858-3 0  9998
2 59067  95.3910 235.4892 0143762 326.8000  32.4265 14.93312435124825
SITRO-AIS 27            
1 59068U 24039T   26168.95066073  .00001907  00000+0  15021-3 0  9993
2 59068  95.3912 235.7868 0142704 325.2855  33.9119 14.93734271124853
SITRO-AIS 28            
1 59071U 24039U   26168.92809006  .00002495  00000+0  19553-3 0  9992
2 59071  95.3911 235.8185 0142561 325.1849  34.0111 14.93766993124852
GRBBETA                 
1 60237U 24128C   26168.48551437  .00002424  00000+0  17435-3 0  9999
2 60237  61.9882 215.2195 0040617 134.7304 225.7108 15.06640908106314
OOV-CUBE (TUBSAT-30)    
1 60240U 24128F   26168.65432347  .00001478  00000+0  12352-3 0  9991
2 60240  61.9933 223.9441 0044583 133.8615 226.6174 15.02775098106189
ROBUSTA-3A (MEDITERRAN*)
1 60243U 24128J   26168.59788154  .00004093  00000+0  24768-3 0  9997
2 60243  61.9845 206.7918 0041354 128.0239 232.4601 15.11679517106485
LASARSAT                
1 62391U 24247Q   26167.97623210  .00026221  00000+0  52389-3 0  9994
2 62391  44.9742 263.4006 0008180 330.0323  30.0098 15.46364825 83280
CROCUBE                 
1 62394U 24247T   26168.68403664  .00028750  00000+0  53655-3 0  9991
2 62394  44.9716 256.7472 0007967 338.3414  21.7139 15.48292245 83427
FORESAIL-1 PRIME        
1 66778U 25276DS  26168.72132939  .00003751  00000+0  18399-3 0  9993
2 66778  97.4199 241.9826 0003961 102.4588 257.7090 15.18706701 30485
KNACKSAT-2              
1 67683U 98067XZ  26168.60673955  .00040994  00000+0  49993-3 0  9996
2 67683  51.6314 292.3670 0009088 217.1010 142.9356 15.60014370 20344
