OBJECT_NAME,OBJECT_ID,EPOCH,MEAN_MOTION,ECCENTRICITY,INCLINATION,RA_OF_ASC_NODE,ARG_OF_PERICENTER,MEAN_ANOMALY,EPHEMERIS_TYPE,CLASSIFICATION_TYPE,NORAD_CAT_ID,ELEMENT_SET_NO,REV_AT_EPOCH,BSTAR,MEAN_MOTION_DOT,MEAN_MOTION_DDOT
SIRION PATHFINDER-2,2018-099B,2026-06-17T15:27:41.711328,15.14551067,.0007179,97.4248,217.6909,303.3569,56.6975,0,U,43759,999,41269,.18547563E-3,.3356E-4,0
CORVUS BC4,2018-099K,2026-06-17T15:38:02.771808,15.12499738,.00082042,97.4063,211.6182,11.8470,348.2952,0,U,43767,999,41247,.20508811E-3,.3509E-4,0
M2 PATHFINDER,2020-037E,2026-06-17T13:53:34.724832,15.04677114,.0012526,97.8146,359.8151,144.9775,215.2277,0,U,45727,999,32555,.9804E-4,.1317E-4,0
NETSAT-4,2020-068U,2026-06-17T23:13:01.939584,15.43886308,.00037463,97.8602,177.2709,334.9225,25.1839,0,U,46504,999,31589,.32135229E-3,.14505E-3,0
NETSAT-3,2020-068V,2026-06-17T12:29:06.542304,15.42688001,.0004166,97.8649,175.0036,0.5703,359.5547,0,U,46505,999,31573,.34277E-3,.14868E-3,0
NETSAT-1,2020-068W,2026-06-17T12:38:22.090848,15.34649788,.0004996,97.8743,169.3378,31.5449,328.6092,0,U,46506,999,31535,.28756E-3,.9573E-4,0
NETSAT-2,2020-068X,2026-06-17T11:43:32.340000,15.46009035,.00034123,97.8608,176.6489,26.1763,333.9657,0,U,46507,999,31578,.38293481E-3,.1861E-3,0
GREENCUBE (IO-117),2022-080E,2026-06-13T07:02:28.697280,6.42583230,.00089108,70.1444,299.5995,290.4576,69.5127,0,U,53109,999,9181,0,-.3E-7,0
SITRO-AIS 5 (KATYS),2023-091L,2026-06-17T22:05:31.683840,15.29471964,.00127679,97.5057,232.8268,101.1566,259.1111,0,U,57176,999,16445,.36815252E-3,.1047E-3,0
SITRO-AIS 6 (CHIRKIN),2023-091AC,2026-06-17T21:37:38.890848,15.25946701,.00131005,97.5064,231.9225,104.2536,256.0158,0,U,57192,999,16439,.3278676E-3,.8364E-4,0
SITRO-AIS 8 (ANOKHIN),2023-091AD,2026-06-17T22:28:11.983584,15.32154226,.00117753,97.5052,234.4343,97.7783,262.4796,0,U,57193,999,16456,.41007298E-3,.12685E-3,0
SITRO-AIS 7 (FARTUSHNIY),2023-091AE,2026-06-17T21:42:23.557248,15.25634813,.00129617,97.5061,231.7507,105.1788,255.0884,0,U,57194,999,16438,.32758757E-3,.8278E-4,0
SITRO-AIS 10 (BURDAEV),2023-091AK,2026-06-17T21:35:26.296224,15.38636050,.00074537,97.5079,239.4588,78.2622,281.9458,0,U,57199,999,16487,.44801977E-3,.17044E-3,0
SITRO-AIS 9 (SHCHUKIN),2023-091AM,2026-06-17T22:13:46.918272,15.38143405,.00077193,97.5077,239.2155,78.1534,282.0576,0,U,57201,999,16486,.43449493E-3,.16263E-3,0
SITRO-AIS 12 (SMIRENNIY),2023-091AQ,2026-06-17T22:00:04.434336,15.38436816,.00072424,97.5090,239.6732,73.3262,286.8777,0,U,57204,999,16488,.42735258E-3,.16146E-3,0
SITRO-AIS 11 (SHEFFER),2023-091AU,2026-06-17T22:19:06.104928,15.38861691,.00071326,97.5088,239.9341,73.2744,286.9283,0,U,57208,999,16490,.44127025E-3,.16908E-3,0
SITRO-AIS 25,2024-039R,2026-06-17T23:29:59.337600,14.93516495,.01433606,95.3905,235.6368,325.9545,33.2544,0,U,59066,999,12484,.17772014E-3,.2254E-4,0
SITRO-AIS 26,2024-039S,2026-06-17T21:55:37.778016,14.93312435,.0143762,95.3910,235.4892,326.8000,32.4265,0,U,59067,999,12482,.16857794E-3,.2127E-4,0
SITRO-AIS 27,2024-039T,2026-06-17T22:48:57.087072,14.93734271,.01427043,95.3912,235.7868,325.2855,33.9119,0,U,59068,999,12485,.15020564E-3,.1907E-4,0
SITRO-AIS 28,2024-039U,2026-06-17T22:16:26.981184,14.93766993,.0142561,95.3911,235.8185,325.1849,34.0111,0,U,59071,999,12485,.19553276E-3,.2495E-4,0
GRBBETA,2024-128C,2026-06-17T11:39:08.441568,15.06640908,.00406176,61.9882,215.2195,134.7304,225.7108,0,U,60237,999,10631,.17434717E-3,.2424E-4,0
OOV-CUBE (TUBSAT-30),2024-128F,2026-06-17T15:42:13.547808,15.02775098,.00445831,61.9933,223.9441,133.8615,226.6174,0,U,60240,999,10618,.12351979E-3,.1478E-4,0
ROBUSTA-3A (MEDITERRANEE),2024-128J,2026-06-17T14:20:56.965056,15.11679517,.0041354,61.9845,206.7918,128.0239,232.4601,0,U,60243,999,10648,.24768E-3,.4093E-4,0
LASARSAT,2024-247Q,2026-06-16T23:25:46.453440,15.46364825,.000818,44.9742,263.4006,330.0323,30.0098,0,U,62391,999,8328,.52389176E-3,.26221E-3,0
CROCUBE,2024-247T,2026-06-17T16:25:00.765696,15.48292245,.00079679,44.9716,256.7472,338.3414,21.7139,0,U,62394,999,8342,.53654775E-3,.2875E-3,0
FORESAIL-1 PRIME,2025-276DS,2026-06-17T17:18:42.859296,15.18706701,.00039616,97.4199,241.9826,102.4588,257.7090,0,U,66778,999,3048,.18398799E-3,.3751E-4,0
KNACKSAT-2,1998-067XZ,2026-06-17T14:33:42.297120,15.60014370,.0009088,51.6314,292.3670,217.1010,142.9356,0,U,67683,999,2034,.49993E-3,.40994E-3,0
